PRATHAM                 
1 41783U 16059A   26069.89684592  .00000975  00000+0  18084-3 0  9992
2 41783  97.8319  71.0907 0031536 169.1475 191.0418 14.67041078505100
ALSAT-1N                
1 41789U 16059G   26069.97712302  .00001278  00000+0  22426-3 0  9990
2 41789  97.8040  77.7071 0026861 139.5311 220.7900 14.69120470505581
CAS-2T & KS-1Q          
1 41847U 16066G   26069.81533430  .00001602  00000+0  23193-3 0  9992
2 41847  98.3879 146.6528 0343594  68.0881 295.6464 14.44474062490590
YUNHAI-1 01             
1 41857U 16068A   26069.97348837  .00000202  00000+0  90495-4 0  9992
2 41857  98.5894  81.8736 0004805 336.6839  23.4126 14.32668408487760
RESOURCESAT-2A          
1 41877U 16074A   26069.95763117  .00000182  00000+0  10317-3 0  9992
2 41877  98.7595 144.2385 0002419  33.7930 326.3401 14.21601534480345
TANSAT                  
1 41898U 16081A   26069.96547343  .00000334  00000+0  80319-4 0  9994
2 41898  98.5365  67.3328 0019305 252.1179 107.7914 14.59870440490297
JILIN-1 03              
1 41914U 17002B   26069.99690411  .00016019  00000+0  41598-3 0  9997
2 41914  97.2001  78.6263 0007059 149.6640 210.5016 15.39019410506743
CARTOSAT-2D             
1 41948U 17008A   26069.89056384  .00000724  00000+0  37548-4 0  9991
2 41948  97.4228 130.9712 0004508 216.5125 143.5803 15.19263759502652
CARTOSAT-2E             
1 42767U 17036C   26069.97334914 -.00000094  00000+0 -12628-5 0  9994
2 42767  97.4394 131.3348 0002730 299.6546  60.4417 15.19192983483230
D-SAT                   
1 42794U 17036AF  26069.90722296  .00008660  00000+0  41975-3 0  9991
2 42794  97.5484  49.2360 0085258 141.1220 219.6186 15.15547348475965
IRIDIUM 113             
1 42803U 17039A   26069.79697031  .00000420  00000+0  14291-3 0  9997
2 42803  86.4028   3.2883 0002223  81.0054 279.1394 14.34222798457089
NORSAT 2                
1 42828U 17042D   26069.92982592  .00014926  00000+0  69954-3 0  9994
2 42828  97.3980 245.1066 0010344  41.1495 319.0518 15.19740978472801
TECHNOSAT               
1 42829U 17042E   26069.89161081  .00004046  00000+0  29354-3 0  9995
2 42829  97.4155 231.4004 0019518  71.8995 288.4355 15.04297092471922
FLYING LAPTOP           
1 42831U 17042G   26069.97837730  .00005679  00000+0  45301-3 0  9991
2 42831  97.4275 229.5947 0019330  91.3749 268.9690 15.00531652471720
WNISAT 1R               
1 42835U 17042L   26069.92844189  .00004513  00000+0  35580-3 0  9990
2 42835  97.4520 229.7311 0013343 127.9968 232.2464 15.01163524471768
LEMUR-2-GREENBERG       
1 42837U 17042N   26069.57528823  .00021444  00000+0  78492-3 0  9998
2 42837  97.3782 250.9027 0009082   0.1761 359.9480 15.28021575473313
LEMUR-2-FURIAUS         
1 42840U 17042R   26069.94483118  .00026806  00000+0  10315-2 0  9996
2 42840  97.3755 249.4694 0007495  52.6505 307.5416 15.26330768473205
CORVUS BC2              
1 42846U 17042X   26069.92373995  .00004618  00000+0  32339-3 0  9999
2 42846  97.3957 235.1964 0014643  89.3050 270.9855 15.05620296472273
CORVUS BC1              
1 42847U 17042Y   26069.93010519  .00004463  00000+0  31109-3 0  9993
2 42847  97.3988 235.9490 0013327  68.1953 292.0691 15.05827976472306
VRSS-2                  
1 42954U 17060A   26069.95738426  .00001399  00000+0  18647-3 0  9995
2 42954  97.6651 112.0567 0018539  63.4349 296.8762 14.81022488453917
MOHAMMED VI-A           
1 43005U 17070A   26069.98479009  .00000972  00000+0  14464-3 0  9995
2 43005  97.9425 143.7073 0001483  95.9028 264.2351 14.77128688449488
FENGYUN 3D              
1 43010U 17072A   26069.97519609  .00000296  00000+0  16153-3 0  9999
2 43010  99.0038  42.6746 0001477  10.7835 349.3371 14.19716087431058
CZ-4C R/B               
1 43012U 17072C   26069.88510634  .00000660  00000+0  13804-3 0  9995
2 43012  98.5699 174.7236 0123712  94.7321 266.8018 14.58695738442300
NOAA 20 (JPSS-1)        
1 43013U 17073A   26069.88567276  .00000112  00000+0  74053-4 0  9997
2 43013  98.7692  10.2610 0001268 136.5970 223.5306 14.19536500430521
MAKERSAT 0              
1 43016U 17073D   26069.61915213  .00026116  00000+0  78861-3 0  9991
2 43016  97.4779 311.6013 0115171 262.5480  96.2661 15.27849429451390
RADFXSAT (FOX-1B)       
1 43017U 17073E   26069.58859512  .00012004  00000+0  54358-3 0  9993
2 43017  97.4848 298.8651 0154494 309.0184  49.7375 15.10898387450495
JILIN-1 04              
1 43022U 17074A   26069.91450638  .00017094  00000+0  43349-3 0  9995
2 43022  97.4763 177.1626 0004559 173.8689 186.2614 15.39754968459131
JILIN-1 05              
1 43023U 17074B   26069.95898874  .00008165  00000+0  26288-3 0  9990
2 43023  97.4779 174.9493 0004701 202.3167 157.7870 15.32470447458950
JILIN-1 06              
1 43024U 17074C   26069.92872675  .00008468  00000+0  27252-3 0  9997
2 43024  97.4715 172.0244 0006193 219.1500 140.9294 15.32462482458783
IRIDIUM 116             
1 43072U 17083C   26069.84137928  .00000052  00000+0  11354-4 0  9994
2 43072  86.4025   3.1000 0002149  94.2833 265.8609 14.34217959430077
IRIDIUM 130             
1 43073U 17083D   26069.87943446  .00000015  00000+0 -15700-5 0  9998
2 43073  86.4029   3.3498 0001806  90.9120 269.2283 14.34217586430023
LKW-2                   
1 43080U 17084A   26069.97550272  .00006859  00000+0  27793-3 0  9993
2 43080  97.1335 114.3896 0001475 167.5871 192.5404 15.24953242456714
SUPERVIEW-1 03          
1 43099U 18002A   26069.96916926  .00023248  00000+0  63705-3 0  9999
2 43099  97.3161 155.1818 0050951 173.3011 186.8926 15.35968285453272
CARTOSAT-2F             
1 43111U 18004A   26069.93957653  .00004914  00000+0  23617-3 0  9992
2 43111  97.4157 131.0765 0000978 195.9487 164.1717 15.19278229452414
LKW-3                   
1 43146U 18006A   26069.96223796  .00015569  00000+0  48865-3 0  9999
2 43146  97.6484 226.9149 0002229 301.8130  58.2894 15.33120550453656
ASNARO-2                
1 43152U 18007A   26069.98914603  .00010496  00000+0  45660-3 0  9997
2 43152  97.4031  78.4233 0001864  91.7013 268.4437 15.22433791452471
JILIN-1 07              
1 43159U 18008E   26069.97802235  .00010880  00000+0  34292-3 0  9997
2 43159  97.1877  92.5968 0010100  59.5468 300.6771 15.33011416449940
JILIN-1 08              
1 43160U 18008F   26069.98789221  .00010671  00000+0  34487-3 0  9993
2 43160  97.1903  92.0108 0008102  73.2904 286.9227 15.32229594449905
LEMUR-2-KADI            
1 43184U 18014E   26069.75644828  .00107531  00000+0  11126-2 0  9990
2 43184  97.4683 354.4899 0001462 139.6389 220.4979 15.64377547445558
S-NET D                 
1 43186U 18014G   26069.73081138  .00007160  00000+0  37965-3 0  9996
2 43186  97.5429 335.1709 0008678  12.2230 347.9212 15.15645789443849
S-NET B                 
1 43187U 18014H   26069.74038557  .00007547  00000+0  40021-3 0  9991
2 43187  97.5433 335.1637 0009258   6.4436 353.6913 15.15618318443843
S-NET A                 
1 43188U 18014J   26069.73015202  .00007126  00000+0  37777-3 0  9990
2 43188  97.5446 335.3444 0009097   7.7575 352.3797 15.15652872443844
S-NET C                 
1 43189U 18014K   26069.67771372  .00007539  00000+0  39980-3 0  9997
2 43189  97.5462 335.3516 0010251 358.7716   1.3490 15.15609335442388
PAZ                     
1 43215U 18020A   26069.96325947  .00002469  00000+0  12076-3 0  9993
2 43215  97.4461  78.7464 0001791  84.9277 275.2162 15.19142596446090
GOES 17                 
1 43226U 18022A   26069.91384030 -.00000181  00000+0  00000+0 0  9990
2 43226   0.6839  87.4025 0001702 233.0647  87.5656  1.00273409 29437
LKW-4                   
1 43236U 18025A   26069.90716220  .00043482  00000+0  65547-3 0  9994
2 43236  97.6272 233.7026 0002898 296.5271  63.5685 15.54664865444729
ZHUHAI-1 OVS-02         
1 43440U 18040B   26069.96335645  .00007189  00000+0  30196-3 0  9998
2 43440  97.0497  93.0621 0002164 221.2282 138.8793 15.23716489437757
ZHUHAI-1 OHS-02         
1 43441U 18040C   26069.99939851  .00007883  00000+0  32352-3 0  9998
2 43441  97.0499  99.9368 0008738 208.9452 151.1303 15.24439914 99314
GAOFEN-6                
1 43484U 18048A   26069.94809010  .00001149  00000+0  17140-3 0  9998
2 43484  97.7866 136.1841 0013244 130.9294 229.3065 14.76599825418897
LUOJIA-1 01             
1 43485U 18048B   26069.93588598  .00001023  00000+0  12050-3 0  9999
2 43485  97.8148 149.7128 0010426  86.2067 274.0341 14.86880333419613
PAKTES 1A               
1 43529U 18056A   26069.93523119  .00004748  00000+0  39972-3 0  9994
2 43529  98.1120 222.3521 0021783  76.3948 283.9697 14.98561220417207
PRSS-1                  
1 43530U 18056B   26069.94551957  .00001244  00000+0  16393-3 0  9998
2 43530  97.7909 140.5078 0001356  81.6739 278.4628 14.81816255413884
HAIYANG-1C              
1 43609U 18068A   26069.94314903  .00000094  00000+0  48970-4 0  9995
2 43609  98.5268 143.6413 0011412  31.7544 328.4327 14.34145785393003
SSTL S1-4               
1 43618U 18071A   26069.70974971  .00001198  00000+0  11107-3 0  9997
2 43618  97.5171 305.3338 0001697 112.4579 247.6823 14.96213213408210
HAIYANG-2B              
1 43655U 18081A   26070.01810061 -.00000331  00000+0 -27969-3 0  9997
2 43655  99.3340  80.2406 0001306 140.7162 219.4085 13.79306198371393
CZ-4B R/B               
1 43656U 18081B   26069.65599771  .00000139  00000+0  58510-4 0  9999
2 43656  99.3712 339.7252 0204612 190.3420 169.3522 14.31823056385201
CFOSAT                  
1 43662U 18083A   26069.97071834  .00001928  00000+0  10269-3 0  9993
2 43662  97.3641  77.3816 0001581 125.8424 234.2957 15.16365076407559
TEN-KOH                 
1 43677U 18084G   26069.97388886  .00003138  00000+0  24114-3 0  9997
2 43677  98.0799 258.2144 0011979  88.9553 271.3043 15.02472429401418
DIWATA-2B               
1 43678U 18084H   26069.98972360  .00005262  00000+0  42794-3 0  9999
2 43678  98.1041 262.0798 0011929 122.9355 237.3016 14.99973503401496
